MARISAT 3
1 08882U 76053A   16096.51283008 -.00000137  00000-0  00000+0 0  9997
2 08882  14.9521 335.4790 0125530 236.2090  34.6087  0.95899327 85473
COSMOS 825
1 08889U 76054A   16097.90750135  .00000003  00000-0  11894-3 0  9997
2 08889  74.0034 352.4210 0058293  26.9055  49.3666 12.55687397825017
COSMOS 826
1 08890U 76054B   16098.44889779 -.00000032  00000-0 -12687-3 0  9991
2 08890  73.9991 250.1535 0039511 141.2442 273.5279 12.38508854800156
COSMOS 827
1 08891U 76054C   16097.81871903 -.00000017  00000-0 -88917-5 0  9996
2 08891  73.9987  81.0452 0048435 139.6283 292.2003 12.53255801239360
COSMOS 828
1 08892U 76054D   16098.18034950  .00000014  00000-0  19379-3 0  9990
2 08892  74.0007 164.9959 0036741 237.1809 152.3761 12.50935574818149
COSMOS 829
1  8893U 76054E   16096.86763039 -.00000022 +00000-0 -43000-4 0  9991
2  8893 073.9991 249.9281 0025877 344.4456 125.3043 12.48629490814457
COSMOS 830
1  8894U 76054F   16097.02820900 +.00000006 +00000-0 +15282-3 0  9992
2  8894 074.0024 336.9748 0015388 108.9056 354.2116 12.46210580810912
COSMOS 831
1  8895U 76054G   16096.96462047 -.00000027 +00000-0 -78036-4 0  9991
2  8895 074.0000 066.9003 0021438 253.3631 161.8068 12.43699649807264
COSMOS 832
1 08896U 76054H   16097.59012465  .00000012  00000-0  20209-3 0  9997
2 08896  73.9996 152.6794 0024043  23.8857  86.8948 12.41275588804048
SL-8 R/B
1 08897U 76054J   16098.20212520  .00000066  00000-0  74327-3 0  9990
2 08897  73.9964 138.5232 0124848 132.1288 296.6677 12.21046020774849
THORAD AGENA D DEB
1 08908U 70025NJ  16097.51721428  .00005532  00000-0  42526-2 0  9998
2 08908 101.6897  65.9540 0154369  70.4030 291.3709 13.88225314225018
COSMOS 836
1 08923U 76061A   16097.56027202  .00000045  00000-0  25956-4 0  9999
2 08923  74.0522 294.1727 0017870  10.5102 349.6419 14.33022425 76980
SL-8 R/B
1 08924U 76061B   16097.85079249  .00000070  00000-0  32580-4 0  9999
2 08924  74.0596 184.9782 0014504 203.0639 296.3017 14.36965826 81043
DELTA 1 DEB
1 08951U 75004AH  16097.05301454  .00000335  00000-0  74345-4 0  9992
2 08951  97.7608  97.5575 0033703  33.9736 326.3616 14.62429057127004
DELTA 1 DEB
1  8954U 75004AL  16096.94671340 +.00000577 +00000-0 +19682-3 0  9996
2  8954 097.7559 205.2238 0136674 238.5654 120.2111 14.34596012075906
DELTA 1 DEB
1 08956U 75004AN  16097.16824891  .00000420  00000-0  74174-4 0  9999
2 08956  98.2944 155.3246 0029145 290.4736  69.3343 14.72592554133474
DELTA 1 DEB
1 08958U 75004AQ  16097.77501411  .00000258  00000-0  67234-4 0  9996
2 08958  98.0079 168.7358 0037407 219.1344 140.7148 14.56792457119307
DELTA 1 DEB
1 08959U 75004AR  16097.02973393  .00000138  00000-0  52624-4 0  9991
2 08959  98.4126  18.0052 0067291 137.5451 223.0972 14.43545663105057
DELTA 1 DEB
1 08964U 75004AW  16097.51355402  .00000209  00000-0  86605-4 0  9991
2 08964  97.6814 319.1460 0106902  34.2647 326.5376 14.31617950 87602
DELTA 1 DEB
1 08968U 75004BA  16097.06246385  .00000190  00000-0  86783-4 0  9990
2 08968  97.6208 115.0921 0138285  84.6564 277.0378 14.24929227 77914
DELTA 1 DEB
1 08969U 75004BB  16096.81820060  .00000310  00000-0  11916-3 0  9990
2 08969  97.6922 188.5004 0125858 230.8298 128.1653 14.31965706 82453
DELTA 1 DEB
1 08970U 75004BC  16098.40489641  .00000355  00000-0  11969-3 0  9992
2 08970  97.3238 356.6917 0116701 194.1954 165.5949 14.37915467 83607
DELTA 1 DEB
1 08978U 75004BL  16097.15914111  .00000442  00000-0  71971-4 0  9993
2 08978  98.2264 137.7754 0033062   5.3028 354.8525 14.75810250137771
DELTA 1 DEB
1 08980U 75004BN  16098.19367696  .00000297  00000-0  68820-4 0  9998
2 08980  97.9076  51.9842 0042753 221.6470 138.1473 14.61127976123510
DELTA 1 DEB
1 08981U 75004BP  16098.28908551  .00000507  00000-0  16466-3 0  9992
2 08981  97.7183 220.2746 0132467  29.1775 331.6732 14.37624237 80068
DELTA 1 DEB
1 09003U 75004CM  16098.18146844  .00000434  00000-0  69677-4 0  9998
2 09003  98.1914 164.9177 0028522 359.3996   0.7174 14.76582637138240
PALAPA 1
1 09009U 76066A   16096.07980002 -.00000309  00000-0  00000+0 0  9993
2 09009  14.2977 341.2326 0003921 160.2462  32.4915  1.00095693 90654
COSMOS 839
1 09011U 76067A   16096.81245676 -.00000056  00000-0 -13957-5 0  9991
2 09011  65.8530 262.1375 0710081 292.2674  60.4518 12.32822060801004
SL-8 R/B
1  9013U 76067B   16096.82546522 -.00000020 +00000-0 +11711-3 0  9992
2  9013 065.8640 135.5432 0721069 244.7018 248.1274 12.35322716792387
SL-8 DEB
1 09016U 76067C   16097.52540579 -.00000040  00000-0  56413-4 0  9990
2 09016  65.8661 294.7768 0708021 268.1286 183.2441 12.32607812788710
COSMOS 841
1 09022U 76069A   16097.84654475  .00000037  00000-0  21763-4 0  9990
2 09022  74.0419 292.9978 0013534 214.0250 146.0036 14.35650950 78234
SL-8 R/B
1 09023U 76069B   16098.23591389  .00000088  00000-0  36497-4 0  9995
2 09023  74.0443 181.2943 0016416  94.6341 265.6689 14.39477062 82095
COSMOS 842
1 09025U 76070A   16097.90107999  .00000030  00000-0  15942-4 0  9991
2 09025  82.9843 272.7840 0027212 203.4263 263.9136 13.74021594991001
DELTA 1 DEB
1  9040U 75004DE  16096.64414251 +.00000035 +00000-0 +20829-4 0  9991
2  9040 097.9577 352.1679 0046141 290.5826 069.0421 14.47066028074539
DELTA 1 DEB
1  9042U 75004DG  16096.94946914 +.00000095 +00000-0 +42183-4 0  9995
2  9042 097.9125 254.4643 0062109 226.2742 133.3295 14.39712283103573
SL-8 R/B
1 09044U 76070B   16097.47501315  .00000074  00000-0  60616-4 0  9990
2 09044  82.9866 235.5852 0015204  70.4816 351.8159 13.76196896993847
COMSTAR 2
1 09047U 76073A   16097.07662082 -.00000306  00000-0  00000+0 0  9996
2 09047  14.3277 341.2274 0001021 225.2044 320.8583  0.99979467146282
NOAA 5
1 09057U 76077A   16097.55682321 -.00000053  00000-0 -73002-4 0  9999
2 09057 101.7843  88.5876 0009954  26.4035  89.7013 12.37771984793989
COSMOS 846
1 09061U 76078A   16098.35613830  .00000055  00000-0  40142-4 0  9992
2 09061  82.9297 309.7235 0042109 144.3251 319.2997 13.76375130263355
SL-8 R/B
1 09062U 76078B   16097.89032662  .00000130  00000-0  11342-3 0  9992
2 09062  82.9295 273.9766 0028752   8.0467  99.8178 13.78387338995841
DELTA 1 R/B
1 09063U 76077B   16098.08452338 -.00000039  00000-0  27146-4 0  9999
2 09063 101.5296  83.3250 0060943 314.0444 159.4012 12.50414215853752
DELTA 1 DEB
1 09293U 75004DU  16097.69396733  .00000188  00000-0  51456-4 0  9990
2 09293  97.9494   5.6575 0083828 330.3950  29.2516 14.55686026120749
DELTA 1 DEB
1  9313U 75004EQ  16096.82933654 +.00000082 +00000-0 +37746-4 0  9995
2  9313 097.5612 313.7554 0089507 045.6812 315.1671 14.37499524100431
DELTA 1 DEB
1 09320U 75004EX  16098.26811624  .00000117  00000-0  31960-4 0  9996
2 09320  98.3989   1.8603 0055354 233.7794 125.8283 14.63711135 45838
OPS 6630 DEB
1  9323U 73088F   16096.68775154 +.00000021 +00000-0 +23688-3 0  9991
2  9323 097.0492 356.5653 0024895 077.1474 338.1113 12.58946753847886
ATLAS CENTAUR R/B
1 09329U 76073B   16098.30695130 -.00000253  00000-0 -99110-3 0  9992
2 09329  22.0515  41.8368 7187831 201.5124 344.9598  2.23614757193473
THORAD DELTA 1 R/B(2)
1 09330U 74101G   16096.77460714  .00000008  00000-0  10312-3 0  9994
2 09330  13.1747 354.0944 7215664 325.4227   4.2774  2.28429093333580
RADUGA 2
1 09416U 76092A   16097.11963519 -.00000059  00000-0  00000+0 0  9996
2 09416  11.8042 319.1937 0027887 283.7477  63.4535  1.00294576 91999
COSMOS 858
1 09443U 76098A   16097.62765761  .00000087  00000-0  40423-4 0  9995
2 09443  74.0483 129.7059 0012720  86.7216 273.5391 14.34016712 65160
SL-8 R/B
1 09444U 76098B   16097.36539544  .00000075  00000-0  33659-4 0  9995
2 09444  74.0530  20.7233 0014384 272.7800  87.1707 14.37768400506152
PAGEOS 1 DEB
1 09468U 66056AH  16098.45107395  .00000270  00000-0  29781-1 0  9995
2 09468  85.4443 285.6549 2145626  39.8970 334.1348  8.08954749827814
MARISAT 2
1 09478U 76101A   16097.19234404 -.00000126  00000-0  00000+0 0  9992
2 09478  12.5458 336.0386 0102132 262.6692  60.2424  0.97590832 87136
METEOR 1-26
1 09481U 76102A   16097.48301895  .00000225  00000-0  12095-3 0  9998
2 09481  81.2164  78.7966 0022647   0.7909 359.3293 14.09722634 29187
SL-3 R/B
1 09482U 76102B   16097.33438628 -.00000029  00000-0 -24173-4 0  9993
2 09482  81.2779 172.4690 0048697 297.9409  61.6835 14.07555189 26330
COSMOS 860
1 09486U 76103A   16097.57688038 -.00000081  00000-0  83837-5 0  9996
2 09486  64.7011 199.9178 0042662 127.6907 318.5400 13.81244355368884
COSMOS 861
1 09494U 76104A   16098.17417772 -.00000060  00000-0  26916-4 0  9999
2 09494  64.8611 353.3519 0059920 224.7826 298.0069 13.81560526991829
COSMOS 862
1  9495U 76105A   16095.88852621 -.00000973 +00000-0 +00000-0 0  9997
2  9495 069.5566 259.0141 6272533 311.6348 009.3192 02.00734772166944
EKRAN 1
1  9503U 76107A   16096.57711378 +.00000069 +00000-0 +00000-0 0  9994
2  9503 011.8805 319.5274 0061467 072.9668 062.1901 01.00262432161169
COSMOS 864
1 09509U 76108A   16097.85493573  .00000031  00000-0  16173-4 0  9998
2 09509  82.9435  30.4308 0031345  97.2682 315.7097 13.75311399978899
SL-8 R/B
1 09510U 76108B   16098.21796138  .00000066  00000-0  50744-4 0  9994
2 09510  82.9395 349.8673 0025409 328.4076  31.5554 13.77521465981746
DELTA 1 DEB
1 09567U 75004FP  16098.09033514  .00000023  00000-0  26282-4 0  9991
2 09567  97.8776 146.3680 0125727 292.2888  66.5000 14.20092423 79116
DELTA 1 DEB
1 09568U 73086FW  16097.47027779  .00000711  00000-0  73220-2 0  9993
2 09568 101.4550 298.2122 0336168  16.9400  11.4807 12.05533406856154
SL-8 DEB *
1 09569U 73098D   16096.86181859  .00001282  00000-0  16354-3 0  9999
2 09569  74.0518 141.4151 0009617  98.3741 261.8527 14.82591246357512
DELTA 1 DEB
1  9570U 73086FX  16097.02986439 -.00000027 +00000-0 +11597-3 0  9995
2  9570 101.6572 157.8321 0067239 251.0154 227.9823 12.41201147915828
